#dP2022 11  2  0  0  0.00000000      96 __u+U ITR14 FIT  IAC
## 2234 259200.00000000   900.00000000 59885 0.0000000000000
+  128   C01C02C03C04C05C06C07C08C09C10C11C12C13C14C16C19C20
+        C21C22C23C24C25C26C27C28C29C30C32C33C34C35C36C37C38
+        C39C40C41C42C43C44C45C46C59C60E01E03E04E05E07E08E09
+        E10E11E12E13E14E15E18E19E21E24E25E26E27E30E31E33E34
+        E36G01G02G03G04G05G06G07G08G09G10G11G12G13G14G15G16
+        G17G18G19G20G21G22G23G24G25G26G27G28G29G30G31G32J02
+        J03J04J07R01R02R03R04R05R06R07R08R09R10R11R12R13R14
+        R15R17R18R19R20R21R22R23R24  0  0  0  0  0  0  0  0
++        17 17 17 17 16  9  9  9  9  9  9  8  9  9  9  7  7
++         7  7  7  7  7  7  7  7  7  7  7  7  7  7  7  7  8
++         8  8  7  7  7  7  7  8 18 17  5  4  4  4  4  4  4
++         4  4  4  4  4  4  5  4  4  4  4  5  4  4  5  5  4
++         4  4  4  4  4  4  4  4  4  3  4  4  4  4  4  4  4
++         4  3  4  4  4  4  3  4  4  6  4  4  4  3  4  4  8
++         8  9 17  7  6  6  6  6 15  6  6  6 15  6  6  7  5
++         6  6  6  7  7  6  8 15  6  0  0  0  0  0  0  0  0
%c M  cc GPS ccc cccc cccc cccc cccc ccccc ccccc ccccc ccccc
%c cc cc ccc ccc cccc cccc cccc cccc ccccc ccccc ccccc ccccc
%f  0.0000000  0.000000000  0.00000000000  0.000000000000000
%f  0.0000000  0.000000000  0.00000000000  0.000000000000000
%i    0    0    0    0      0      0      0      0         0
%i    0    0    0    0      0      0      0      0         0
/* INFORMATION & ANALYSIS CENTER (IAC)            RAPID DATA
/* S/V CLOCKS ARE ALIGNED TO GNSS TIME                      
/* G:C1WC2W R:C1PC2P E:C1XC5X C:C2IC6I J:C1CC2S             
/* PCV:IGS14_2218 OL/AL:FES2004  NONE     YN ORB:CoN CLK:CoN
*  2022 11 02 11 30  0.00000000
PC01 -34382.587607  24433.190000   -855.553941    840.581089
PC02   4612.467869  41885.248199   -539.031195    516.215173
PC03 -14741.477680  39489.696720  -1187.347308   -214.136604
PC04 -39658.100424  14406.657391   -283.234402    150.454998
PC05  21965.898137  36014.287427   -519.278595    -34.003530
PC06 -18078.659238  32697.886612  19322.101905     10.668123
PC07  -4646.358668  37995.844492  17902.196335    270.855855
PC08  -6546.285552  19692.298797 -36705.574806    505.501391
PC09  -8855.599187  30927.595888  27358.335890 999999.999999
PC10   1496.011914  40712.886103  12125.345735     74.629105
PC11  20856.290169  -4187.040430 -17970.362443   -315.862277
PC12   9324.206290  12362.633531 -23173.208500    284.480929
PC13   3591.297126  23497.772703 -34650.152491    122.867156
PC14  17057.735961   5064.816663  21519.128529    619.029580
PC16 -22096.707610  32316.505251  15476.760701    122.138289
PC19 -14598.880886   6043.291791 -22986.752447   -919.853623
PC20 -16813.227413 -13511.813423 -17691.061562    848.758813
PC21   9001.656996  26390.644566   1309.056014   -734.544471
PC22  -3896.662029  23047.897599 -15265.944741   -816.331271
PC23  10492.305251 -13729.151780 -21906.222357   -854.091554
PC24  24943.212543  10647.498707   6495.700332   -862.622352
PC25  24927.679266  -3593.682567 -12001.063377     18.668474
PC26  11733.756644  16505.518191  19170.902745    -30.172470
PC27  -1781.088923 -18751.173024  20576.742370     45.225981
PC28  13981.247481 -22734.522328   8142.821189     31.329622
PC29 -21900.350726  13915.474099  10272.646816     35.057735
PC30 -16728.514021  -4156.004563  21939.589130      0.804056
PC32  -9133.802948 -26340.507765  -1190.731255   -734.161035
PC33  14644.305228  -5996.449370  22980.917853   -920.814062
PC34  17465.085130   3049.939152 -21561.751761     30.317141
PC35 -14240.881154  23022.805099  -6719.800715     69.836298
PC36 -25311.255961   2581.557548  11500.427533   -872.307879
PC37 -10014.323867 -16914.561793 -19804.810513   -706.545920
PC38 -15330.121839  18854.184649 -34467.317176     35.330492
PC39 -24003.626609  32934.938982  10430.846390     -0.770335
PC40  -8950.593216  34820.104632  22198.460319     -7.265642
PC41   4260.277451 -22706.872402  15698.882469   -234.423455
PC42  16717.310169  14651.743466  16913.885251   -587.750470
PC43  22045.968649 -13205.831699 -10904.695439     22.840755
PC44   2403.535897  18861.250087 -20425.110802    101.010147
PC45 -10108.241609  13759.398634  22079.234025    -17.376476
PC46 -25767.898333  -9620.530105  -4850.040810    -10.323147
PC59 -32313.477805  27110.441828   -359.209219      0.414669
PC60   7251.535395  41521.528242  -1328.901627     -0.973924
PE01 -10071.423199  13412.108954  24394.712356   -558.231652
PE03  12829.237862 -24970.594494   9361.938022   -615.933260
PE04   -436.783670  28247.400126   8829.123817  -1149.842833
PE05  17969.380085  -6925.573581  22474.634293   -128.593351
PE07 -12580.941947 -14841.923161 -22308.941525   -718.199188
PE08    391.698139 -28229.024000  -8892.393400   -625.618461
PE09  12377.611680  14994.816120  22316.051181   -714.852554
PE10  10676.238404  13116.422728 -24295.435668   -487.972019
PE11  20802.898223   7201.481487 -19796.487728   1512.377219
PE12   -233.050455  16624.449452 -24488.781655   -255.253659
PE13 -20090.374033  -7654.388725  20353.220085    430.658496
PE14 -14889.698136  24508.830121   5722.528715     45.147977
PE15    526.495763 -16617.954564  24495.880283    710.083844
PE18  19147.690828 -13209.967362 -15092.857765   -790.219268
PE19 -14088.530695  23242.481929 -11719.261261  -4103.506125
PE21 -22212.416334  -2975.741582  19345.043124   -492.287301
PE24  22153.068236  19513.183214  -1957.499298   -925.035806
PE25  22319.324014   3260.517922 -19152.262029   -591.701719
PE26 -28748.442084   6184.584118   3450.320348  -1798.220272
PE27 -22605.550568 -18901.221743   2900.630950   -429.926197
PE30  -8876.174680 -23504.646593 -15668.644731   -965.781602
PE31   9666.116384  23546.444167  15114.659336   -507.186964
PE33 -20713.691168  15713.228245 -14146.394048   -455.270322
PE34  20528.507512 -15805.277164  14296.249712    -12.558894
PE36  28720.408755  -5707.068849  -4316.076216   -454.887059
PG01   4705.334003  14067.642265 -22357.156333    257.936644
PG02  -6252.563868 -14153.046641  22234.205668   -639.702573
PG03   9908.864832  22223.076611 -10901.841249   -370.065544
PG04   1214.237485  23031.838753  13084.402411    -93.421283
PG05    900.662308 -18169.409770  19133.954021   -102.742010
PG06  25752.304376  -6408.737479   1894.111781    507.940718
PG07  19815.785538   7998.325547  16496.723841    292.169003
PG08  -5454.628729  25591.984269  -3226.428902    -91.852062
PG09  10250.216371  14313.450443  19795.155235   -274.594804
PG10 -20406.515464  -7034.903674 -15530.078441    -10.157251
PG11  19894.984917 -12019.576961  12821.696071    -33.750446
PG12  -7769.565170 -22900.708526 -11371.362960   -299.464826
PG13  13215.398699 -22743.390280   2682.975771    417.295969
PG14  20632.569542   9086.110127 -14123.373097    -88.184148
PG15   2019.557767 -26107.719230  -3827.539178    -15.805592
PG16  -7742.926729  13812.617834  20964.850507   -526.795717
PG17  15430.842032    -18.661614 -21187.219952    674.354305
PG18 -20931.921227  -6539.691268  15084.291752     -7.200334
PG19  17488.513445 -10722.434462 -16959.722751    231.968295
PG20  12571.621628  -9622.747321  21317.411380    473.406095
PG21  -4469.370473  15890.080475 -20022.030929    156.883033
PG22 -16882.557960  14093.604000 -14345.595643    357.008339
PG23 -20722.070723 -15367.034838  -6618.872307     -1.145684
PG24   -949.447602 -16164.191304 -21343.251972     75.698658
PG25 -16847.695539 -20659.266315  -1987.911011    388.594203
PG26 -15974.424034   5403.945070  20490.761906    234.536629
PG27 -12665.486724  21731.255265   7649.422261    186.642292
PG28 -17609.436198    543.200600  19639.760510      6.990137
PG29  -7469.390210 -16249.234094  19566.822304   -564.256727
PG30  25885.451073    -38.723507   6611.135127   -537.003754
PG31 -25760.982646   6783.518356   2884.265319   -198.859923
PG32 -16272.498214   3585.670312 -20488.575506   -282.959033
PJ02 -25015.190964  22882.168462  30054.864146     -8.765758
PJ03 -35181.637297  22881.771045    465.805658     -3.898686
PJ04 -20528.775684  26401.415669 -20527.659202    112.441989
PJ07 -25383.993309  33668.891902     50.943787      0.005253
PR01  -2883.770768 -25311.392147   1246.420994     17.214536
PR02  -9570.038473 -16953.753395 -16487.742229    -23.190100
PR03 -10834.013860   1244.855279 -23022.133750     66.563283
PR04  -5891.015249  18323.050208 -16709.207407    163.428420
PR05   2074.284072  25378.454206  -1213.932881    102.245214
PR06  10524.198485  15581.714359  17205.176258    -78.177546
PR07  10740.334263  -2221.803812  23062.210208     43.601138
PR08   5866.973853 -18482.347674  16642.337715    -67.899979
PR09  21652.379722  12101.789700   6131.458978     85.371259
PR10  23116.647815   4617.814428  -9653.414103    -87.425417
PR11  11693.718322  -6291.552885 -21770.400390     22.550261
PR12  -7628.185165 -13719.037177 -20085.975662     22.515782
PR13 -20791.658864 -12630.084815  -7690.991246    -28.443601
PR14 -22638.024974  -3710.203189  11151.389046     24.170457
PR15 -10838.214027   6865.114496  22066.967939     92.886204
PR17 -20903.357776   8544.936641  11920.902715    574.519112
PR18 -19099.598834  16227.308549  -4609.704333     50.036085
PR19  -8950.397853  15690.442682 -18011.475777   -209.522679
PR20  10305.599829   5213.512660 -22735.786067    -81.387683
PR21  21218.618429  -9472.387760 -10478.644512   -346.478604
PR22  19315.311691 -15782.259894   5389.129737     15.258722
PR23   3872.125433 -14147.488219  20863.913455    -60.642457
PR24 -11262.715971  -4832.022271  22395.324291    124.020542
EOF
